[{"OBJECT_NAME":"STARLINK-32493","OBJECT_ID":"2024-213T","EPOCH":"2026-03-09T13:46:46.259328","MEAN_MOTION":15.30184851,"ECCENTRICITY":0.0001071,"INCLINATION":53.1579,"RA_OF_ASC_NODE":168.9104,"ARG_OF_PERICENTER":90.6637,"MEAN_ANOMALY":269.4487,"EPHEMERIS_TYPE":0,"CLASSIFICATION_TYPE":"U","NORAD_CAT_ID":62025,"ELEMENT_SET_NO":999,"REV_AT_EPOCH":7313,"BSTAR":0.00043778,"MEAN_MOTION_DOT":0.00012623,"MEAN_MOTION_DDOT":0},{"OBJECT_NAME":"JINJUSAT-1B","OBJECT_ID":"2025-052A","EPOCH":"2026-03-09T15:55:38.242848","MEAN_MOTION":15.30194857,"ECCENTRICITY":0.00055504,"INCLINATION":97.4113,"RA_OF_ASC_NODE":325.4613,"ARG_OF_PERICENTER":82.193,"MEAN_ANOMALY":277.9941,"EPHEMERIS_TYPE":0,"CLASSIFICATION_TYPE":"U","NORAD_CAT_ID":63210,"ELEMENT_SET_NO":999,"REV_AT_EPOCH":5486,"BSTAR":0.00068430401,"MEAN_MOTION_DOT":0.00019955,"MEAN_MOTION_DDOT":0}]
